[{"OBJECT_NAME":"ZIYUAN 1-02C (ZY 1-02C)","OBJECT_ID":"2011-079A","EPOCH":"2026-03-10T00:21:45.280224","MEAN_MOTION":14.38123973,"ECCENTRICITY":0.00053834,"INCLINATION":98.4167,"RA_OF_ASC_NODE":138.3624,"ARG_OF_PERICENTER":238.9134,"MEAN_ANOMALY":241.9717,"EPHEMERIS_TYPE":0,"CLASSIFICATION_TYPE":"U","NORAD_CAT_ID":38038,"ELEMENT_SET_NO":999,"REV_AT_EPOCH":74495,"BSTAR":0.00018700518,"MEAN_MOTION_DOT":5.24e-6,"MEAN_MOTION_DDOT":0},{"OBJECT_NAME":"COSMOS 1140","OBJECT_ID":"1979-089A","EPOCH":"2026-03-09T22:08:57.544800","MEAN_MOTION":14.37591396,"ECCENTRICITY":0.00153559,"INCLINATION":74.0646,"RA_OF_ASC_NODE":248.8421,"ARG_OF_PERICENTER":13.2225,"MEAN_ANOMALY":346.9328,"EPHEMERIS_TYPE":0,"CLASSIFICATION_TYPE":"U","NORAD_CAT_ID":11573,"ELEMENT_SET_NO":999,"REV_AT_EPOCH":43059,"BSTAR":7.066483e-5,"MEAN_MOTION_DOT":1.86e-6,"MEAN_MOTION_DDOT":0}]
